C/2020 K7 (PANSTARRS),e,32.0408,286.0720,358.2358,101.5859,0.0009626,0.93710668,0.7770,01/13.0/2022,2000,g  8.0,4.0
# From MPEC 2021-P47
C/2020 K8 (Catalina-ATLAS),h,09/14.5532/2020,31.4246,181.5346,260.0129,1.000153,0.473874,2000,15.0,3.2
# From MPEC 2021-BE3
P/2020 K9 (Lemmon-PANSTARRS),e,23.2098,166.2401,196.9264,4.199647,0.1145209,0.32140120,38.3635,01/13.0/2022,2000,g 12.5,4.0
# From MPEC 2021-U31
P/2020 M1 (PANSTARRS),e,8.6337,142.8313,71.5021,5.285459,0.0811111,0.48099815,60.3442,01/13.0/2022,2000,g 14.5,4.0
# From MPEC 2021-N06
C/2020 M3 (ATLAS),e,23.4716,71.2267,328.4710,26.93467,0.0070508,0.95292031,3.1328,01/13.0/2022,2000,g 14.5,4.0
# From MPEC 2021-R75
A/2020 M4,h,11/24.0891/2020,160.1273,348.6220,104.6528,1.000037,5.952646,2000,14.5,2.0
# From MPEC 2022-A21
C/2020 M5 (ATLAS),h,08/19.8749/2021,93.2239,352.0938,126.3363,1.000235,3.004308,2000,9.0,4.0
# From MPEC 2021-N06
C/2020 N1 (PANSTARRS),h,03/12.2185/2021,29.7045,279.9726,186.7623,1.000495,1.320384,2000,12.5,4.0
# From MPEC 2021-P47
C/2020 N2 (ATLAS),e,161.0351,257.0975,331.2677,102.7580,0.0009462,0.98253820,0.0000,08/23.7704/2020,2000,g 16.0,3.2
# From MPEC 2020-SI8
P/2020 O1 (Lemmon-PANSTARRS),e,5.2259,175.9762,104.5296,2.644672,0.2291639,0.11935025,142.1820,01/13.0/2022,2000,g 15.5,4.0
# From MPEC 2021-W31
C/2020 O2 (Amaral),h,08/28.5959/2021,71.7504,256.7569,10.3068,1.002366,4.862227,2000,8.0,3.2
# From MPEC 2020-SI8
P/2020 O3 (PANSTARRS),e,8.4419,266.8301,81.5929,4.650857,0.0982663,0.10400983,34.1634,01/13.0/2022,2000,g 12.0,4.0
# From MPEC 2021-BE3
C/2020 P1 (NEOWISE),h,10/20.2037/2020,45.0868,53.5185,8.8891,1.000271,0.341795,2000,14.0,3.2
# From MPEC 2022-A21
C/2020 P3 (ATLAS),e,61.8857,19.4754,82.2515,24435,0.0000003,0.99972120,0.0000,04/20.8812/2021,2000,g  6.0,4.0
# From MPEC 2022-A21
C/2020 PV6 (PANSTARRS),e,128.2392,329.1447,71.3842,41.77557,0.0036502,0.94504777,0.3978,01/13.0/2022,2000,g 10.0,4.0
# From MPEC 2021-N06
C/2020 Q1 (Borisov),e,142.9163,52.4153,9.9019,58.69095,0.0021920,0.97759459,0.0000,08/14.5751/2020,2000,g 14.0,4.0
# From MPEC 2022-A21
C/2020 R2 (PANSTARRS),e,53.2277,195.0930,211.7347,410.9367,0.0001183,0.98858248,0.0000,02/24.4914/2022,2000,g  9.0,4.0
# From MPEC 2022-A21
C/2020 R4 (ATLAS),e,164.4626,323.2744,46.7210,98.58773,0.0010069,0.98956611,0.0000,03/01.9606/2021,2000,g 13.5,4.0
# From MPEC 2020-W26
P/2020 R5 (PANSTARRS),e,11.4518,272.9770,82.4444,4.982864,0.0886106,0.31471702,52.6438,01/13.0/2022,2000,g  9.5,6.0
# From MPEC 2021-Y10
C/2020 R6 (Rankin),e,82.8114,12.1777,272.0049,357.0964,0.0001461,0.99123126,0.0000,09/09.6000/2019,2000,g 11.0,4.0
# From MPEC 2022-A21
C/2020 R7 (ATLAS),e,114.8922,268.2795,347.8272,67630,0.0000001,0.99995629,0.0000,09/16.2055/2022,2000,g  7.0,3.2
# From MPEC 2021-BE3
P/2020 S1 (PANSTARRS),e,13.7335,129.4610,254.9242,5.985105,0.0673126,0.50748383,24.2898,01/13.0/2022,2000,g 14.0,4.0
# From MPEC 2021-BE3
C/2020 S2 (PANSTARRS),e,22.3991,197.6733,202.2929,10.19836,0.0302627,0.82780087,11.7118,01/13.0/2022,2000,g 17.0,4.0
# From MPEC 2021-WD8
C/2020 S3 (Erasmus),e,19.9174,222.8242,349.9673,179.5097,0.0004098,0.99778758,0.0000,12/12.6823/2020,2000,g 13.5,3.2
# From MPEC 2022-A21
C/2020 S4 (PANSTARRS),h,02/09.3484/2023,20.5733,117.7200,21.0134,1.000413,3.369342,2000,8.5,3.2
# From MPEC 2021-BE3
P/2020 S5 (PANSTARRS),e,12.3532,316.0013,53.0986,4.051301,0.1208683,0.33858966,63.1275,01/13.0/2022,2000,g 14.5,4.0
# From MPEC 2021-P47
P/2020 S6 (Leonard),e,15.4593,242.5546,176.6688,3.600089,0.1442893,0.47930743,59.9292,01/13.0/2022,2000,g 16.0,4.0
# From MPEC 2021-BE3
P/2020 S7 (PANSTARRS),e,16.0919,328.0196,40.4692,5.025635,0.0874818,0.41067022,36.7992,01/13.0/2022,2000,g 14.5,4.0
# From MPEC 2021-P47
C/2020 S8 (Lemmon),e,108.5241,24.0552,160.3304,275.9089,0.0002151,0.99143307,0.0000,04/10.9222/2021,2000,g 12.5,4.0
# From MPEC 2021-WD8
C/2020 T2 (Palomar),e,27.8708,83.0458,150.3975,315.3200,0.0001760,0.99348335,0.0000,07/11.1737/2021,2000,g 11.0,3.2
# From MPEC 2021-N06
P/2020 T3 (PANSTARRS),e,7.2956,74.0085,357.0385,3.517494,0.1494012,0.59168679,53.4131,01/13.0/2022,2000,g 18.0,3.2
# From MPEC 2021-N06
C/2020 T4 (PANSTARRS),h,07/05.2608/2021,83.8159,50.6168,79.6098,1.000083,2.191879,2000,13.0,3.2
# From MPEC 2021-BE3
C/2020 T5 (Lemmon),e,66.5903,237.8598,90.3070,830.5852,0.0000412,0.99772515,0.0000,10/09.6079/2020,2000,g 16.0,4.0
# From MPEC 2021-N06
P/2020 U2 (PANSTARRS),e,6.4211,342.8992,84.6417,3.778098,0.1342129,0.51072879,51.4397,01/13.0/2022,2000,g 18.0,4.0
# From MPEC 2021-W31
C/2020 U3 (Rankin),e,30.1722,282.6773,124.2764,65.54087,0.0018575,0.96526961,0.6334,01/13.0/2022,2000,g 15.0,4.0
# From MPEC 2022-A21
C/2020 U4 (PANSTARRS),h,04/07.9244/2022,167.0360,120.0147,69.5281,1.001456,5.353712,2000,7.0,4.0
# From MPEC 2022-A21
C/2020 U5 (PANSTARRS),e,97.2709,107.3377,75.4151,6183,0.0000020,0.99939258,0.0000,04/27.8758/2022,2000,g  8.0,4.0
# From MPEC 2022-A21
C/2020 V2 (ZTF),h,05/08.4966/2023,131.6086,212.3607,162.4002,1.001203,2.228280,2000,4.9,4.0
# From MPEC 2021-N06
P/2020 V3 (PANSTARRS),e,23.0315,198.2639,249.3270,8.371073,0.0406942,0.25574931,13.7711,01/13.0/2022,2000,g  8.3,4.0
# From MPEC 2022-A21
P/2020 V4 (Rankin),e,14.2429,203.4972,256.9916,9.350349,0.0344717,0.44937437,6.1777,01/13.0/2022,2000,g  9.0,4.0
# From MPEC 2021-BE3
P/2020 W1 (Rankin),e,10.7912,124.2634,264.9035,7.204010,0.0509733,0.26585642,32.9889,01/13.0/2022,2000,g 10.0,4.0
# From MPEC 2021-BE3
C/2020 W5 (Lemmon),h,11/30.0818/2020,88.5832,75.5008,24.4808,1.000770,3.364305,2000,15.0,4.0
# From MPEC 2021-P47
P/2020 X1 (ATLAS),e,31.6948,56.0181,323.2936,4.527302,0.1023163,0.36550564,55.4082,01/13.0/2022,2000,g 13.0,4.0
# From MPEC 2021-U31
C/2020 X2 (ATLAS),e,18.1886,105.4528,347.3404,16.41151,0.0148245,0.76674713,6.2735,01/13.0/2022,2000,g 10.6,4.0
# From MPEC 2021-S45
C/2020 X4 (Leonard),e,80.6323,161.8895,140.2621,42.90964,0.0035065,0.87845138,1.4796,01/13.0/2022,2000,g  9.0,4.0
# From MPEC 2021-Y10
C/2020 Y2 (ATLAS),e,101.2962,26.5113,266.0996,1161,0.0000249,0.99730150,0.0000,06/17.6725/2022,2000,g  6.5,4.0
# From MPEC 2021-R75
C/2020 Y3 (ATLAS),e,83.1011,191.4341,342.0243,148.2487,0.0005460,0.98651697,0.0000,12/03.4439/2020,2000,g 13.5,4.0
# From MPEC 2022-A21
C/2021 A1 (Leonard),h,01/03.3001/2022,132.6865,255.8966,225.0932,1.000021,0.615254,2000,8.5,4.0
# From MPEC 2021-U31
C/2021 A2 (NEOWISE),e,106.9775,125.2335,338.8285,248.3419,0.0002518,0.99431159,0.0000,01/22.6039/2021,2000,g 13.5,4.0
# From MPEC 2021-R75
C/2021 A4 (NEOWISE),e,111.5629,307.0929,204.6883,43.02893,0.0034919,0.97336428,0.0000,03/20.0211/2021,2000,g 16.0,4.0
# From MPEC 2021-BE3
P/2021 A5 (PANSTARRS),e,18.1878,328.7679,61.1888,3.046976,0.1853107,0.13979959,79.1499,01/13.0/2022,2000,g 15.0,4.0
# From MPEC 2022-A21
C/2021 A6 (PANSTARRS),e,75.6117,164.0793,351.6991,10662,0.0000009,0.99925640,0.0000,05/04.2378/2021,2000,g  7.0,4.0
# From MPEC 2022-A21
C/2021 A7 (NEOWISE),e,78.1496,154.5183,356.0521,5296,0.0000026,0.99962849,0.0000,07/15.3023/2021,2000,g 10.0,4.0
# From MPEC 2021-P47
C/2021 A9 (PANSTARRS),h,12/01.4147/2023,158.0273,314.8416,211.4660,1.003997,7.759022,2000,6.0,4.0
# From MPEC 2021-N06
C/2021 A10 (NEOWISE),e,151.5500,188.3587,82.3362,95.96392,0.0010484,0.98676790,0.0000,03/15.3073/2021,2000,g 19.0,4.0
# From MPEC 2021-O56
C/2021 B2 (PANSTARRS),e,38.0915,120.5536,334.9652,349.7315,0.0001507,0.99281460,0.0000,05/04.2612/2021,2000,g 14.0,4.0
# From MPEC 2021-N06
C/2021 B3 (NEOWISE),e,119.4832,67.2867,293.5548,34.86788,0.0047870,0.93804722,1.4750,01/13.0/2022,2000,g 13.5,4.0
# From MPEC 2022-A21
C/2021 C1 (Rankin),e,143.0435,186.8953,336.3001,40760,0.0000001,0.99991460,0.0000,12/07.1037/2020,2000,g 11.5,4.0
# From MPEC 2021-U31
P/2021 C2 (PANSTARRS),e,21.9279,66.4817,78.7827,9.536854,0.0334654,0.48727204,10.8047,01/13.0/2022,2000,g 12.0,4.0
# From MPEC 2021-N06
C/2021 C3 (Catalina),e,122.1644,181.9245,357.1359,63.09322,0.0019667,0.96392481,0.6580,01/13.0/2022,2000,g 14.0,4.0
# From MPEC 2022-A21
C/2021 C4 (ATLAS),e,132.8482,194.2754,320.2317,13844,0.0000006,0.99967464,0.0000,01/17.0949/2021,2000,g  9.0,4.0
# From MPEC 2022-A21
C/2021 C5 (PANSTARRS),e,50.7853,323.6903,270.9173,4417,0.0000034,0.99926613,0.0000,02/11.0466/2023,2000,g  9.0,4.0
# From MPEC 2022-A21
C/2021 C6 (Lemmon),h,11/13.3171/2021,164.6257,332.1557,203.5605,1.001699,3.271215,2000,12.0,4.0
# From MPEC 2021-N06
C/2021 D1 (SWAN),e,31.4573,311.2698,72.2325,97.84566,0.0010183,0.99078304,0.0000,02/27.6302/2021,2000,g 13.0,4.0
# From MPEC 2022-A21
C/2021 D2 (ZTF),h,02/03.9825/2022,83.8308,305.6784,125.0302,1.001408,2.946289,2000,9.0,4.0
# From MPEC 2021-N06
A/2021 E2,e,167.4881,190.8170,342.4546,235.3418,0.0002730,0.99027890,0.0000,12/10.4676/2020,2000,g 15.0,2.0
# From MPEC 2022-A21
C/2021 E3 (ZTF),h,06/11.9060/2022,112.5575,104.4680,228.8447,1.000850,1.777439,2000,8.5,4.0
# From MPEC 2021-P47
A/2021 E4,e,116.3610,171.1734,48.2792,703.2541,0.0000528,0.99335087,0.0000,04/25.3370/2022,2000,g 13.5,2.0
# From MPEC 2022-A21
A/2021 F1,e,107.3242,203.4513,146.8221,236.0755,0.0002717,0.99578315,0.0000,04/06.8739/2022,2000,g 17.5,2.0
# From MPEC 2021-J72
C/2021 G1 (Leonard),e,131.5636,270.6968,107.4772,75.13175,0.0015135,0.95443216,0.2646,01/13.0/2022,2000,g 14.0,4.0
# From MPEC 2022-A21
C/2021 G2 (ATLAS),e,48.4732,221.1233,343.3733,3854,0.0000041,0.99870833,0.0000,09/10.0473/2024,2000,g  5.5,4.0
# From MPEC 2021-M86
C/2021 G3 (PANSTARRS),h,10/18.5679/2021,102.8818,147.4184,10.6435,1.001023,5.181108,2000,10.5,4.0
# From MPEC 2021-Y10
P/2021 HS (PANSTARRS),e,12.1710,262.3906,46.0855,4.194491,0.1147322,0.81011712,18.3132,01/13.0/2022,2000,g 22.0,4.0
# From MPEC 2021-R75
C/2021 J1 (Maury-Attard),e,92.7092,88.3171,147.3034,26.21432,0.0073434,0.93360964,2.4055,01/13.0/2022,2000,g 15.5,4.0
# From MPEC 2021-R75
C/2021 J2 (PANSTARRS),e,156.2090,23.3290,172.0553,117.6708,0.0007721,0.96000127,0.0869,01/13.0/2022,2000,g 12.0,4.0
# From MPEC 2021-S45
P/2021 J3 (ATLAS),e,14.5517,111.2107,125.9467,8.941675,0.0368617,0.45035071,34.0213,01/13.0/2022,2000,g  7.0,4.0
# From MPEC 2022-A21
